{
  "norad_id": 54798,
  "name": "STARLINK-5420",
  "history": [
    {
      "epoch": "2026-03-28T20:01:07.896288",
      "apogee_km": 540.7033484797921,
      "perigee_km": 538.7869567658727,
      "latitude_deg": 46.23388034927107,
      "longitude_deg": 99.87544032000005,
      "semi_major_axis_km": 6917.882152622832,
      "eccentricity": 0.00013851,
      "inclination_deg": 53.217,
      "raan_deg": 292.9432,
      "arg_perigee_deg": 86.9665,
      "mean_anomaly_deg": 273.1486,
      "mean_motion_rev_day": 15.08839423
    }
  ]
}