{"fetched_at":"2026-03-29T16:36:15Z","count":15609,"tles":[{"name":"STARLINK-5420","line1":"1 54798U 22175AS  26087.83411917  .00000453  00000+0  46562-4 0  9995","line2":"2 54798  53.2170 292.9432 0001385  86.9665 273.1486 15.08839423183164","category":"Starlink"}]}